IRNSS-1B                
1 39635U 14017A   26087.48456586  .00000084  00000+0  00000+0 0  9998
2 39635  29.0683 241.7822 0021948 181.1529 352.5587  1.00278812 43981
CTS DEB [ARRAY COVER]   
1 39688U 76004E   26087.52121993 -.00000031  00000+0  00000+0 0  9999
2 39688   3.4396 267.5433 0042485 169.9412 177.4695  1.00306855 41963
LUCH-5V                 
1 39727U 14023A   26087.84873804 -.00000284  00000+0  00000+0 0  9996
2 39727   4.9361  70.5264 0002459 303.5517 212.4663  1.00272103 43558
KAZSAT-3                
1 39728U 14023B   26087.31919883  .00000041  00000+0  00000+0 0  9997
2 39728   0.0482  43.1379 0000290  35.4975 280.4950  1.00273535 41645
EUTELSAT 3B             
1 39773U 14030A   26087.84836296  .00000000  00000+0  00000+0 0  9994
2 39773   0.0643   9.0658 0000263  38.1657  87.5133  1.00272499 43269
ASIASAT 8 (AMOS-7)      
1 40107U 14046A   26087.85081806 -.00000353  00000+0  00000+0 0  9996
2 40107   0.0315  96.1581 0001572 249.9631 251.7254  1.00273812101341
ASIASAT 6               
1 40141U 14052A   26086.57024553 -.00000381  00000+0  00000+0 0  9996
2 40141   0.0325 262.1957 0000968 121.7203 126.2328  1.00267765 42265
OPTUS 10                
1 40146U 14054A   26087.42128226 -.00000167  00000+0  00000+0 0  9992
2 40146   0.0924 314.6311 0002006  51.7184 127.1471  1.00271270 42228
MEASAT-3B               
1 40147U 14054B   26087.84813137 -.00000261  00000+0  00000+0 0  9996
2 40147   0.0466  42.6788 0003136 348.1280 192.2906  1.00272711 42105
HIMAWARI-8              
1 40267U 14060A   26087.85783808 -.00000295  00000+0  00000+0 0  9995
2 40267   0.0222 111.0728 0000780 226.3757 298.2974  1.00270466 41950
IRNSS-1C                
1 40269U 14061A   26087.56117343 -.00000177  00000+0  00000+0 0  9990
2 40269   6.3109  90.4825 0020710 355.8396  24.6634  1.00274244 41889
INTELSAT 30 (IS-30)     
1 40271U 14062A   26087.59722693 -.00000170  00000+0  00000+0 0  9990
2 40271   0.0203  97.7386 0001116  35.2880 172.9268  1.00272022  5989
ARSAT 1                 
1 40272U 14062B   26087.81572278 -.00000279  00000+0  00000+0 0  9998
2 40272   0.0366 286.3158 0001694  64.4680  57.2823  1.00272348 41811
EUTELSAT 53A            
1 40277U 14064A   26086.98479954  .00000000  00000+0  00000+0 0  9990
2 40277   0.0232 191.6703 0001361 210.9150 190.3510  1.00270850 40753
GSAT-16                 
1 40332U 14078A   26087.76960767  .00000065  00000+0  00000+0 0  9992
2 40332   0.0462  85.1532 0005684 347.8157  85.3472  1.00273796 41300
DIRECTV 14              
1 40333U 14078B   26087.59636026  .00000000  00000+0  00000+0 0  9991
2 40333   0.0201 160.0555 0000397 341.4138 159.9958  1.00267748 41234
YAMAL 401               
1 40345U 14082A   26086.56426551 -.00000247  00000+0  00000+0 0  9999
2 40345   0.0038 157.9388 0000372  86.2381 233.8925  1.00270306 41107
