[{"OBJECT_NAME":"IRNSS-1B","OBJECT_ID":"2014-017A","EPOCH":"2026-03-28T11:37:46.490304","MEAN_MOTION":1.00278812,"ECCENTRICITY":0.0021948,"INCLINATION":29.0683,"RA_OF_ASC_NODE":241.7822,"ARG_OF_PERICENTER":181.1529,"MEAN_ANOMALY":352.5587,"EPHEMERIS_TYPE":0,"CLASSIFICATION_TYPE":"U","NORAD_CAT_ID":39635,"ELEMENT_SET_NO":999,"REV_AT_EPOCH":4398,"BSTAR":0,"MEAN_MOTION_DOT":8.4e-7,"MEAN_MOTION_DDOT":0},{"OBJECT_NAME":"CTS DEB [ARRAY COVER]","OBJECT_ID":"1976-004E","EPOCH":"2026-03-28T12:30:33.401952","MEAN_MOTION":1.00306855,"ECCENTRICITY":0.0042485,"INCLINATION":3.4396,"RA_OF_ASC_NODE":267.5433,"ARG_OF_PERICENTER":169.9412,"MEAN_ANOMALY":177.4695,"EPHEMERIS_TYPE":0,"CLASSIFICATION_TYPE":"U","NORAD_CAT_ID":39688,"ELEMENT_SET_NO":999,"REV_AT_EPOCH":4196,"BSTAR":0,"MEAN_MOTION_DOT":-3.1e-7,"MEAN_MOTION_DDOT":0},{"OBJECT_NAME":"LUCH-5V","OBJECT_ID":"2014-023A","EPOCH":"2026-03-28T20:22:10.966656","MEAN_MOTION":1.00272103,"ECCENTRICITY":0.0002459,"INCLINATION":4.9361,"RA_OF_ASC_NODE":70.5264,"ARG_OF_PERICENTER":303.5517,"MEAN_ANOMALY":212.4663,"EPHEMERIS_TYPE":0,"CLASSIFICATION_TYPE":"U","NORAD_CAT_ID":39727,"ELEMENT_SET_NO":999,"REV_AT_EPOCH":4355,"BSTAR":0,"MEAN_MOTION_DOT":-2.84e-6,"MEAN_MOTION_DDOT":0},{"OBJECT_NAME":"KAZSAT-3","OBJECT_ID":"2014-023B","EPOCH":"2026-03-28T07:39:38.778912","MEAN_MOTION":1.00273535,"ECCENTRICITY":2.905e-5,"INCLINATION":0.0482,"RA_OF_ASC_NODE":43.1379,"ARG_OF_PERICENTER":35.4975,"MEAN_ANOMALY":280.495,"EPHEMERIS_TYPE":0,"CLASSIFICATION_TYPE":"U","NORAD_CAT_ID":39728,"ELEMENT_SET_NO":999,"REV_AT_EPOCH":4164,"BSTAR":0,"MEAN_MOTION_DOT":4.1e-7,"MEAN_MOTION_DDOT":0},{"OBJECT_NAME":"EUTELSAT 3B","OBJECT_ID":"2014-030A","EPOCH":"2026-03-28T20:21:38.559744","MEAN_MOTION":1.00272499,"ECCENTRICITY":2.63e-5,"INCLINATION":0.0643,"RA_OF_ASC_NODE":9.0658,"ARG_OF_PERICENTER":38.1657,"MEAN_ANOMALY":87.5133,"EPHEMERIS_TYPE":0,"CLASSIFICATION_TYPE":"U","NORAD_CAT_ID":39773,"ELEMENT_SET_NO":999,"REV_AT_EPOCH":4326,"BSTAR":0,"MEAN_MOTION_DOT":0,"MEAN_MOTION_DDOT":0},{"OBJECT_NAME":"ASIASAT 8 (AMOS-7)","OBJECT_ID":"2014-046A","EPOCH":"2026-03-28T20:25:10.680384","MEAN_MOTION":1.00273812,"ECCENTRICITY":0.0001572,"INCLINATION":0.0315,"RA_OF_ASC_NODE":96.1581,"ARG_OF_PERICENTER":249.9631,"MEAN_ANOMALY":251.7254,"EPHEMERIS_TYPE":0,"CLASSIFICATION_TYPE":"U","NORAD_CAT_ID":40107,"ELEMENT_SET_NO":999,"REV_AT_EPOCH":10134,"BSTAR":0,"MEAN_MOTION_DOT":-3.53e-6,"MEAN_MOTION_DDOT":0},{"OBJECT_NAME":"ASIASAT 6","OBJECT_ID":"2014-052A","EPOCH":"2026-03-27T13:41:09.213792","MEAN_MOTION":1.00267765,"ECCENTRICITY":9.68e-5,"INCLINATION":0.0325,"RA_OF_ASC_NODE":262.1957,"ARG_OF_PERICENTER":121.7203,"MEAN_ANOMALY":126.2328,"EPHEMERIS_TYPE":0,"CLASSIFICATION_TYPE":"U","NORAD_CAT_ID":40141,"ELEMENT_SET_NO":999,"REV_AT_EPOCH":4226,"BSTAR":0,"MEAN_MOTION_DOT":-3.81e-6,"MEAN_MOTION_DDOT":0},{"OBJECT_NAME":"OPTUS 10","OBJECT_ID":"2014-054A","EPOCH":"2026-03-28T10:06:38.787264","MEAN_MOTION":1.0027127,"ECCENTRICITY":0.00020068,"INCLINATION":0.0924,"RA_OF_ASC_NODE":314.6311,"ARG_OF_PERICENTER":51.7184,"MEAN_ANOMALY":127.1471,"EPHEMERIS_TYPE":0,"CLASSIFICATION_TYPE":"U","NORAD_CAT_ID":40146,"ELEMENT_SET_NO":999,"REV_AT_EPOCH":4222,"BSTAR":0,"MEAN_MOTION_DOT":-1.67e-6,"MEAN_MOTION_DDOT":0},{"OBJECT_NAME":"MEASAT-3B","OBJECT_ID":"2014-054B","EPOCH":"2026-03-28T20:21:18.550368","MEAN_MOTION":1.00272711,"ECCENTRICITY":0.0003136,"INCLINATION":0.0466,"RA_OF_ASC_NODE":42.6788,"ARG_OF_PERICENTER":348.128,"MEAN_ANOMALY":192.2906,"EPHEMERIS_TYPE":0,"CLASSIFICATION_TYPE":"U","NORAD_CAT_ID":40147,"ELEMENT_SET_NO":999,"REV_AT_EPOCH":4210,"BSTAR":0,"MEAN_MOTION_DOT":-2.61e-6,"MEAN_MOTION_DDOT":0},{"OBJECT_NAME":"HIMAWARI-8","OBJECT_ID":"2014-060A","EPOCH":"2026-03-28T20:35:17.210112","MEAN_MOTION":1.00270466,"ECCENTRICITY":7.8e-5,"INCLINATION":0.0222,"RA_OF_ASC_NODE":111.0728,"ARG_OF_PERICENTER":226.3757,"MEAN_ANOMALY":298.2974,"EPHEMERIS_TYPE":0,"CLASSIFICATION_TYPE":"U","NORAD_CAT_ID":40267,"ELEMENT_SET_NO":999,"REV_AT_EPOCH":4195,"BSTAR":0,"MEAN_MOTION_DOT":-2.95e-6,"MEAN_MOTION_DDOT":0},{"OBJECT_NAME":"IRNSS-1C","OBJECT_ID":"2014-061A","EPOCH":"2026-03-28T13:28:05.384352","MEAN_MOTION":1.00274244,"ECCENTRICITY":0.002071,"INCLINATION":6.3109,"RA_OF_ASC_NODE":90.4825,"ARG_OF_PERICENTER":355.8396,"MEAN_ANOMALY":24.6634,"EPHEMERIS_TYPE":0,"CLASSIFICATION_TYPE":"U","NORAD_CAT_ID":40269,"ELEMENT_SET_NO":999,"REV_AT_EPOCH":4188,"BSTAR":0,"MEAN_MOTION_DOT":-1.77e-6,"MEAN_MOTION_DDOT":0},{"OBJECT_NAME":"INTELSAT 30 (IS-30)","OBJECT_ID":"2014-062A","EPOCH":"2026-03-28T14:20:00.406752","MEAN_MOTION":1.00272022,"ECCENTRICITY":0.0001116,"INCLINATION":0.0203,"RA_OF_ASC_NODE":97.7386,"ARG_OF_PERICENTER":35.288,"MEAN_ANOMALY":172.9268,"EPHEMERIS_TYPE":0,"CLASSIFICATION_TYPE":"U","NORAD_CAT_ID":40271,"ELEMENT_SET_NO":999,"REV_AT_EPOCH":598,"BSTAR":0,"MEAN_MOTION_DOT":-1.7e-6,"MEAN_MOTION_DDOT":0},{"OBJECT_NAME":"ARSAT 1","OBJECT_ID":"2014-062B","EPOCH":"2026-03-28T19:34:38.448192","MEAN_MOTION":1.00272348,"ECCENTRICITY":0.0001694,"INCLINATION":0.0366,"RA_OF_ASC_NODE":286.3158,"ARG_OF_PERICENTER":64.468,"MEAN_ANOMALY":57.2823,"EPHEMERIS_TYPE":0,"CLASSIFICATION_TYPE":"U","NORAD_CAT_ID":40272,"ELEMENT_SET_NO":999,"REV_AT_EPOCH":4181,"BSTAR":0,"MEAN_MOTION_DOT":-2.79e-6,"MEAN_MOTION_DDOT":0},{"OBJECT_NAME":"EUTELSAT 53A","OBJECT_ID":"2014-064A","EPOCH":"2026-03-27T23:38:06.680256","MEAN_MOTION":1.0027085,"ECCENTRICITY":0.00013614,"INCLINATION":0.0232,"RA_OF_ASC_NODE":191.6703,"ARG_OF_PERICENTER":210.915,"MEAN_ANOMALY":190.351,"EPHEMERIS_TYPE":0,"CLASSIFICATION_TYPE":"U","NORAD_CAT_ID":40277,"ELEMENT_SET_NO":999,"REV_AT_EPOCH":4075,"BSTAR":0,"MEAN_MOTION_DOT":0,"MEAN_MOTION_DDOT":0},{"OBJECT_NAME":"GSAT-16","OBJECT_ID":"2014-078A","EPOCH":"2026-03-28T18:28:14.102688","MEAN_MOTION":1.00273796,"ECCENTRICITY":0.0005684,"INCLINATION":0.0462,"RA_OF_ASC_NODE":85.1532,"ARG_OF_PERICENTER":347.8157,"MEAN_ANOMALY":85.3472,"EPHEMERIS_TYPE":0,"CLASSIFICATION_TYPE":"U","NORAD_CAT_ID":40332,"ELEMENT_SET_NO":999,"REV_AT_EPOCH":4130,"BSTAR":0,"MEAN_MOTION_DOT":6.5e-7,"MEAN_MOTION_DDOT":0},{"OBJECT_NAME":"DIRECTV 14","OBJECT_ID":"2014-078B","EPOCH":"2026-03-28T14:18:45.526464","MEAN_MOTION":1.00267748,"ECCENTRICITY":3.97e-5,"INCLINATION":0.0201,"RA_OF_ASC_NODE":160.0555,"ARG_OF_PERICENTER":341.4138,"MEAN_ANOMALY":159.9958,"EPHEMERIS_TYPE":0,"CLASSIFICATION_TYPE":"U","NORAD_CAT_ID":40333,"ELEMENT_SET_NO":999,"REV_AT_EPOCH":4123,"BSTAR":0,"MEAN_MOTION_DOT":0,"MEAN_MOTION_DDOT":0},{"OBJECT_NAME":"YAMAL 401","OBJECT_ID":"2014-082A","EPOCH":"2026-03-27T13:32:32.540064","MEAN_MOTION":1.00270306,"ECCENTRICITY":3.72e-5,"INCLINATION":0.0038,"RA_OF_ASC_NODE":157.9388,"ARG_OF_PERICENTER":86.2381,"MEAN_ANOMALY":233.8925,"EPHEMERIS_TYPE":0,"CLASSIFICATION_TYPE":"U","NORAD_CAT_ID":40345,"ELEMENT_SET_NO":999,"REV_AT_EPOCH":4110,"BSTAR":0,"MEAN_MOTION_DOT":-2.47e-6,"MEAN_MOTION_DDOT":0}]
